GLOBALSTAR M001 [-]     
1 25162U 98008A   23326.06969407 -.00000040  00000+0  43098-3 0  9999
2 25162  52.0017 201.2711 0002570 102.5925  45.4827 12.38173545172712
GLOBALSTAR M004 [-]     
1 25163U 98008B   23326.28706198 -.00000090  00000+0  78760-4 0  9990
2 25163  52.0014   1.8640 0003346  99.4526 340.5599 12.63342116189272
GLOBALSTAR M002 [-]     
1 25164U 98008C   23326.10622017 -.00000062  00000+0  29468-3 0  9998
2 25164  52.0008 237.0930 0001260 129.5654 230.5277 11.61497525117477
GLOBALSTAR M003 [-]     
1 25165U 98008D   23326.39709844  .00000047  00000+0  14516-2 0  9993
2 25165  51.9787 315.0151 0007667 219.2958 288.8960 12.11954855163761
GLOBALSTAR M014 [-]     
1 25306U 98023A   23326.82247595 -.00000052  00000+0  47176-3 0  9991
2 25306  51.9804 170.5528 0001816  62.4365  23.9119 11.65462259124424
GLOBALSTAR M006 [-]     
1 25307U 98023B   23326.83896078 -.00000068  00000+0  16580-3 0  9991
2 25307  51.9916 201.5938 0003835 141.5855 299.2577 11.58157029150620
GLOBALSTAR M015 [-]     
1 25308U 98023C   23326.80030815 -.00000055  00000+0  41999-3 0  9996
2 25308  51.9825 273.9334 0012328 134.0249 236.8858 11.48858362128669
GLOBALSTAR M008 [-]     
1 25309U 98023D   23326.56043703 -.00000076  00000+0  15462-3 0  9999
2 25309  51.9986  58.1872 0002784  61.8646  42.2478 12.36032014167038
